#aV2012  9 15  0  0  0.00000000     288 DD+AD WGS84 FIT  NGA
## 1705 518400.00000000   300.00000000 56185 0.0000000000000
+   31     1  2  3  4  5  6  7  8  9 10 11 12 13 14 15 16 17
+         18 19 20 21 22 23 25 26 27 28 29 30 31 32  0  0  0
+          0  0  0  0  0  0  0  0  0  0  0  0  0  0  0  0  0
+          0  0  0  0  0  0  0  0  0  0  0  0  0  0  0  0  0
+          0  0  0  0  0  0  0  0  0  0  0  0  0  0  0  0  0
++         2  2  2  2  2  2  2  2  2  2  2  2  2  2  2  2  2
++         2  2  2  2  2  2  2  2  2  2  2  2  2  2  2  0  0
++         0  0  0  0  0  0  0  0  0  0  0  0  0  0  0  0  0
++         0  0  0  0  0  0  0  0  0  0  0  0  0  0  0  0  0
++         0  0  0  0  0  0  0  0  0  0  0  0  0  0  0  0  0
%c cc cc ccc ccc cccc cccc cccc cccc ccccc ccccc ccccc ccccc
%c cc cc ccc ccc cccc cccc cccc cccc ccccc ccccc ccccc ccccc
%f  0.0000000  0.000000000  0.00000000000  0.000000000000000
%f  0.0000000  0.000000000  0.00000000000  0.000000000000000
%i    0    0    0    0      0      0      0      0         0
%i    0    0    0    0      0      0      0      0         0
/*      NGA, ST. LOUIS,MO.                                  
/*   EPHEMERIS COMPUTED FROM  1 DAYS OF DATA
/*   EPOCHA SMOOTHER  
/* CCCCCCCCCCCCCCCCCCCCCCCCCCCCCCCCCCCCCCCCCCCCCCCCCCCCCCCCC
*  2012  9 15  3 45  0.00000000                                                 
P  1 -14251.525894  22262.678504   2259.985687    273.718382                    
V  1  -1084.808308  -3919.454053  31614.556371      0.015480                    
P  2  17987.727925  -4641.559328 -18648.007107    402.942291                    
V  2  -9715.083510  22288.426088 -15306.725292      0.012096                    
P  3 -18718.031122  -1600.687468  18377.066249    101.781063                    
V  3 -13757.045897 -20201.480137 -15111.112774      0.051028                    
P  4  12573.402299   9791.790605 -21491.554325    304.838870                    
V  4 -13475.337425  23153.047421   3006.472828      0.112414                    
P  5  26423.271317  -2175.150745   2537.231639   -352.061565                    
V  5   3278.020046   2978.608219 -31209.283351     -0.030087                    
P  6 -19624.545898  -7272.430176  16638.710725    -30.473360                    
V  6 -10031.335470 -18415.654195 -19686.417495     -0.085500                    
P  7  -4676.663486  23365.366452  11457.248121    122.170621                    
V  7  -9244.369495  11484.557401 -27540.620547      0.042813                    
P  8   5131.249014  15795.724556  20645.293945      2.151740                    
V  8 -15770.243332  20825.141860 -12635.848400      0.000942                    
P  9  15802.238003 -20339.671517   6058.464171    185.647094                    
V  9  -2279.829800   8316.666267  31000.358973      0.025251                    
P 10  20881.509849  10003.546092 -13630.192113    -51.798150                    
V 10 -16773.334948   2104.407138 -24223.154966     -0.013126                    
P 11 -13080.906526  20516.526592   9877.196243   -302.828129                    
V 11  -1563.318619 -14122.527015  26499.296118     -0.039005                    
P 12  15959.405965 -11616.060518 -17696.274570     90.963428                    
V 12  22435.578415   1730.807589  19300.132570      0.020465                    
P 13   3461.482561  24054.561234 -10713.242014    181.065509                    
V 13  -7400.006414 -11336.303050 -28305.744512     -0.025733                    
P 14 -14603.025628 -21713.990604  -4808.288179    212.662378                    
V 14   -928.456404  -6604.908708  31238.032096      0.009180                    
P 15  11234.280365 -11146.894914  21303.255655    -95.384419                    
V 15  14869.830791  22726.205461   4269.882909     -0.006720                    
P 16 -26586.965486    894.216814   2639.409685   -246.039733                    
V 16  -3259.304657  -1983.525535 -31772.607167     -0.007893                    
P 17  15207.159049  21431.120841  -4490.158125     96.396805                    
V 17    618.384976   6366.838856  30979.458561     -0.033575                    
P 18  -5192.875912 -15784.356999  21149.318671    215.014626                    
V 18  26059.374881   -655.751233   5657.753882      0.018238                    
P 19 -13061.826487   7808.818375  21682.402041   -303.950274                    
V 19 -12246.965609 -24867.437507   1967.169028     -0.034964                    
P 20 -12819.280071  14478.164594 -18335.935600     68.232477                    
V 20 -23172.441721   -580.339942  15950.934855      0.007989                    
P 21    769.599714 -22550.795719  14066.517398   -249.746053                    
V 21  11199.729902 -13557.708910 -23758.001365     -0.023979                    
P 22 -19199.300942 -11128.228374  14877.053770    147.905139                    
V 22  18603.698808  -2701.075847  22144.250892      0.003825                    
P 23  -5350.987446  17515.168965 -19038.207800    164.420064                    
V 23 -13565.695093 -20383.464515 -15278.438113     -0.039248                    
P 25   2054.406995 -15023.352305 -21843.525790     42.874034                    
V 25  27613.004048   -323.376392   2885.636291      0.013006                    
P 26  16390.672269   3063.304795  20145.325249   -280.354075                    
V 26  10903.147106  24532.770951 -11887.774999      0.130445                    
P 27  17211.500714 -16655.846950  11465.667757    431.407290                    
V 27  -4495.543459  13220.995955  27906.853960      0.041825                    
P 28  15983.268139  12556.199486  17771.229690    185.513206                    
V 28 -21364.475645    216.966852  19479.908031      0.037525                    
P 29  -1545.593080 -22818.456325 -13492.334136    355.618724                    
V 29   9954.673900  14179.133669 -24978.857514      0.041108                    
P 30 -24813.864508  -3586.922393  -9098.742480   -412.455981                    
V 30  10703.587806  -3725.299926 -28892.327948      0.192257                    
P 31 -13134.575291  -6610.256159 -21935.611326    274.469124                    
V 31  14351.556240 -24324.472384  -1014.870277      0.025426                    
P 32 -21196.430974   7925.188818 -13299.400530   -488.013631                    
V 32 -17159.968739  -4174.334232  24996.336381     -0.040767                    
EOF
